ONEWEB-0349             
1 49281U 21090C   25364.29011761  .00000137  00000+0  30507-3 0  9991
2 49281  87.9219 308.1274 0001706  77.0600 283.0723 13.20772348207530
ONEWEB-0353             
1 49282U 21090D   25364.30534095 -.00000135  00000+0 -39796-3 0  9993
2 49282  87.9010 323.3522 0001957  73.2288 286.9056 13.14501580205397
ONEWEB-0356             
1 49283U 21090E   25364.28853927  .00000114  00000+0  24749-3 0  9996
2 49283  87.9222 308.1213 0002653  87.2441 272.8996 13.20772857207530
ONEWEB-0358             
1 49284U 21090F   25364.24277617 -.00000032  00000+0 -11050-3 0  9991
2 49284  87.9224 308.1315 0001811  82.7810 277.3529 13.20772264208255
ONEWEB-0359             
1 49285U 21090G   25364.23961494 -.00000023  00000+0 -87383-4 0  9997
2 49285  87.9220 308.1306 0001616  91.8062 268.3256 13.20770994208238
ONEWEB-0360             
1 49286U 21090H   25364.30591263  .00000058  00000+0  11177-3 0  9992
2 49286  87.9211 308.1249 0001669  81.0156 279.1166 13.20771893207551
ONEWEB-0361             
1 49287U 21090J   25364.21122173 -.00000056  00000+0 -17087-3 0  9999
2 49287  87.9219 308.1408 0001916  81.5776 278.5574 13.20770943207994
ONEWEB-0362             
1 49288U 21090K   25364.18160566  .00000047  00000+0  85962-4 0  9990
2 49288  87.9201 338.6114 0001565  80.2791 279.8519 13.19725755204620
